{
  "ident": "FAUL",
  "name": "Ulundi",
  "elevation_m": 525,
  "latitude_deg": -28.32,
  "longitude_deg": 31.416,
  "night_ops_allowed": "yes",
  "lighting": {
    "runway_edge": "yes",
    "threshold": "yes",
    "taxiway": "yes",
    "apron": "yes"
  },
  "ppr_required": "no",
  "ops_hours": "H24",
  "notes": "Reference only.",
  "runways": [
    {
      "designator": "04",
      "magnetic_heading_deg": 40,
      "length_m": 2600,
      "surface": "ASPH"
    },
    {
      "designator": "22",
      "magnetic_heading_deg": 220,
      "length_m": 2600,
      "surface": "ASPH"
    }
  ],
  "night_ops": {
    "night_ops_allowed": "yes",
    "lighting": {
      "runway_edge": "yes",
      "threshold": "yes",
      "taxiway": "yes",
      "apron": "yes"
    },
    "ppr_required": "no",
    "ops_hours": "H24",
    "notes": "Reference only."
  },
  "night_ready": true,
  "metar": {
    "raw": "FAUL 010000Z 00000KT CAVOK 20/10 Q1013 NOSIG",
    "observed_time_utc": "2026-02-01T00:00:00Z",
    "wind_dir_deg": 0,
    "wind_speed_kt": 0,
    "gust_kt": null,
    "variable_wind": null,
    "visibility_m": null,
    "weather_codes": [],
    "cloud_layers": [],
    "ceiling_ft": null,
    "temp_c": 20,
    "dewpoint_c": 10,
    "qnh_hpa": 1013,
    "remarks": "",
    "source": "SAMPLE"
  },
  "taf": {
    "raw": "FAUL 010000Z 00000KT CAVOK 20/10 Q1013 NOSIG",
    "summary": {
      "valid_from": "",
      "valid_to": "",
      "key_changes": []
    },
    "source": "SAMPLE"
  },
  "computed": {
    "wind_components_per_runway": [
      {
        "runway": "04",
        "headwind_kt": 0.0,
        "crosswind_kt": 0.0,
        "tailwind_kt": 0.0,
        "crosswind_side": "L"
      },
      {
        "runway": "22",
        "headwind_kt": -0.0,
        "crosswind_kt": 0.0,
        "tailwind_kt": 0.0,
        "crosswind_side": "L"
      }
    ],
    "density_altitude": {
      "da_ft": 2750,
      "da_m": 838
    },
    "qnh_trend": "steady",
    "flags": [],
    "severity": {
      "level": "OK",
      "flags": []
    },
    "trends": {
      "wind_speed": [
        0,
        0,
        0,
        0
      ],
      "qnh": [
        1013,
        1013,
        1013,
        1013
      ],
      "temp": [
        20,
        20,
        20,
        20
      ]
    }
  }
}