FAMB 010000Z 06008KT CAVOK 19/08 Q1017 NOSIG
