FAOR 121100Z 03012G20KT 8000 -RA FEW020 BKN035 18/12 Q1016 NOSIG
