FAWR 010000Z 04007KT 9999 FEW030 24/12 Q1015 NOSIG
