FAMB 010000Z 0100/0112 06008KT CAVOK TX22/0112Z TN10/0103Z BECMG 0108/0110 09012KT
