TAF FAOR 121100Z 1212/1318 02010KT 9999 SCT020 TEMPO 1212/1218 4000 SHRA BKN015 BECMG 1300/1302 01008KT 9999 SCT030
