FAWR 010000Z 0100/0112 05008KT 9999 SCT030 TX28/0111Z TN13/0104Z
