
<!doctype html>
<html lang="en">
<head>
  <meta charset="utf-8" />
  <meta name="viewport" content="width=device-width, initial-scale=1" />
  <meta name="base-path" content="../" />
  <title>FAPN-FALA route pack</title>
  <link rel="stylesheet" href="../assets/style.css" />
</head>
<body>
  <header>
    <h1>METAR.oncloud.africa</h1>
    <p class="disclaimer">Training/augmentation only. Not an official briefing source.</p>
    <nav>
      <a class="" href="../index.html">Airfields</a>
      <a class="active" href="../routes.html">Routes</a>
      <a class="" href="../tools/index.html">Tools</a>
    </nav>
    <div class="mode-row">
      <span class="mode-banner mode-training">
        <span class="icon">●</span>TRAINING (Sample) — Reproducible training data
      </span>
      <label class="mode-select">Mode
        <select disabled>
          <option selected>TRAINING (Sample)</option>
          <option>LIVE_BETA</option>
        </select>
      </label>
    </div>
  </header>
  <main class="container">
    
    <section class="summary">
      <h2>FAPN-FALA — FAPN → FALA</h2>
      <p>Track: 131.8757210457452° | Corridor: 35 NM</p>
      <p>Aircraft: All</p>
      <div class="badge-row">
        <span class="badge">CONVECTIVE_RISK_HIGH</span><span class="badge">TURB_POSSIBLE (TRAINING)</span>
      </div>
      <p>Workload: Low
        (30.0)</p>
      <p>Stability: Stable
        (80.0)</p>
    </section>

    <section class="section">
      <h3>Weather summary</h3>
      <table class="table">
        <tr><th>Aerodrome</th><th>METAR</th><th>TAF</th></tr>
        <tr><td>FAPN</td><td>FAPN 121100Z 09015KT 9999 FEW025 19/08 Q1015</td><td>TAF FAPN 121100Z 1212/1312 10012KT 9999 SCT025 BECMG 1304/1306 13015KT 7000 TSRA BKN020CB</td></tr><tr><td>FALA</td><td>FALA 121100Z 05008KT 9999 FEW015 20/10 Q1018 NOSIG</td><td>TAF FALA 121100Z 1212/1312 06008KT 9999 SCT020 BECMG 1302/1304 09012KT 7000 BKN020</td></tr><tr><td>FAOR</td><td>FAOR 121100Z 03012G20KT 8000 -RA FEW020 BKN035 18/12 Q1016 NOSIG</td><td>TAF FAOR 121100Z 1212/1318 02010KT 9999 SCT020 TEMPO 1212/1218 4000 SHRA BKN015 BECMG 1300/1302 01008KT 9999 SCT030</td></tr><tr><td>FABL</td><td>FABL 121100Z 14012KT 9999 SCT030 24/09 Q1013</td><td>TAF FABL 121100Z 1212/1312 14010KT 9999 SCT030 BECMG 1304/1306 17012KT 7000 SHRA BKN020</td></tr>
      </table>
      <p>TAF expiry: Dep 338.3h |
        Dest 338.3h</p>
    </section>

    <section class="section">
      <h3>NOTAM highlights</h3>
      <div class="grid"><div class='card'><strong>FAPN</strong><p>FAPN APRON LIMITED PARKING. MARSHALLER REQUIRED.</p></div><div class='card'><strong>FALA</strong><p>FALA RWY 07/25 WIP. EXPECT DELAYS.</p></div></div>
    </section>

    <section class="section">
      <h3>Upper winds & temperatures</h3>
      <table class="table">
        <tr><th>Level (ft)</th><th>Wind</th><th>Temp</th><th>Headwind (kt)</th>
          <th>Ground speed (kt)</th></tr>
        <tr><td>9000</td><td>80/25 kt</td><td>8 °C</td><td>15.4</td><td>104.6</td></tr>
      </table>
      <p>Freezing level estimate: 18000 ft</p>
    </section>

    <section class="section">
      <h3>SIGMET / AIRMET</h3>
      <div class="grid"><div class='card'><p>SIGMET 1 ZFWG JOHANNESBURG FIR MOD TURB FL080-FL180 MOV NE</p></div><div class='card'><p>SIGMET 2 ZFWG JOHANNESBURG FIR ISOL TS FL100-FL200 MOV NE</p></div><div class='card'><p>AIRMET 1 ZFWG JOHANNESBURG FIR ICE MOD FL090-FL150</p></div></div>
      <p>Time to SIGMET expiry: --h</p>
    </section>

    <section class="section">
      <h3>SIGWX charts</h3>
      <div class="grid">
        <div class="card"><img src="../assets/low_sigwx.svg"
          alt="Low-level SIGWX sample" /></div>
        <div class="card"><img src="../assets/high_sigwx.svg"
          alt="High-level SIGWX sample" /></div>
      </div>
      <p class="note">For training reference only.</p>
    </section>
    
  </main>
  <footer>
    <p>Training/augmentation only. Verify with SAWS/ATC/AIP/NOTAM office and POH/AFM.</p>
    <p>Computed values are approximations.</p>
  </footer>
  <script src="../assets/app.js"></script>
</body>
</html>
