
<!doctype html>
<html lang="en">
<head>
  <meta charset="utf-8" />
  <meta name="viewport" content="width=device-width, initial-scale=1" />
  <meta name="base-path" content="../" />
  <title>FAWB-FAMB-FAWR-FAWB route pack</title>
  <link rel="stylesheet" href="../assets/style.css" />
</head>
<body>
  <header>
    <h1>METAR.oncloud.africa</h1>
    <p class="disclaimer">Training/augmentation only. Not an official briefing source.</p>
    <nav>
      <a class="" href="../index.html">Airfields</a>
      <a class="active" href="../routes.html">Routes</a>
      <a class="" href="../tools/index.html">Tools</a>
    </nav>
    <div class="mode-row">
      <span class="mode-banner mode-training">
        <span class="icon">●</span>TRAINING (Sample) — Reproducible training data
      </span>
      <label class="mode-select">Mode
        <select disabled>
          <option selected>TRAINING (Sample)</option>
          <option>LIVE_BETA</option>
        </select>
      </label>
    </div>
  </header>
  <main class="container">
    
    <section class="summary">
      <h2>FAWB-FAMB-FAWR-FAWB — FAWB → FAMB → FAWR → FAWB</h2>
      <p>Track: 91.8366863375013° | Corridor: 25 NM</p>
      <p>Aircraft: C172</p>
      <div class="badge-row">
        <span class="badge">CONVECTIVE_RISK_HIGH</span><span class="badge">TURB_POSSIBLE (TRAINING)</span>
      </div>
      <p>Workload: Low
        (30.0)</p>
      <p>Stability: Stable
        (80.0)</p>
    </section>

    <section class="section">
      <h3>Weather summary</h3>
      <table class="table">
        <tr><th>Aerodrome</th><th>METAR</th><th>TAF</th></tr>
        <tr><td>FAWB</td><td>FAWB 010000Z 00000KT CAVOK 20/10 Q1013 NOSIG</td><td>FAWB 010000Z 00000KT CAVOK 20/10 Q1013 NOSIG</td></tr><tr><td>FAMB</td><td>FAMB 010000Z 06008KT CAVOK 19/08 Q1017 NOSIG</td><td>FAMB 010000Z 0100/0112 06008KT CAVOK TX22/0112Z TN10/0103Z BECMG 0108/0110 09012KT</td></tr><tr><td>FAWR</td><td>FAWR 010000Z 04007KT 9999 FEW030 24/12 Q1015 NOSIG</td><td>FAWR 010000Z 0100/0112 05008KT 9999 SCT030 TX28/0111Z TN13/0104Z</td></tr><tr><td>FAWB</td><td>FAWB 010000Z 00000KT CAVOK 20/10 Q1013 NOSIG</td><td>FAWB 010000Z 00000KT CAVOK 20/10 Q1013 NOSIG</td></tr><tr><td>FALA</td><td>FALA 121100Z 05008KT 9999 FEW015 20/10 Q1018 NOSIG</td><td>TAF FALA 121100Z 1212/1312 06008KT 9999 SCT020 BECMG 1302/1304 09012KT 7000 BKN020</td></tr><tr><td>FAOR</td><td>FAOR 121100Z 03012G20KT 8000 -RA FEW020 BKN035 18/12 Q1016 NOSIG</td><td>TAF FAOR 121100Z 1212/1318 02010KT 9999 SCT020 TEMPO 1212/1218 4000 SHRA BKN015 BECMG 1300/1302 01008KT 9999 SCT030</td></tr>
      </table>
      <p>TAF expiry: Dep --h |
        Dest --h</p>
    </section>

    <section class="section">
      <h3>NOTAM highlights</h3>
      <div class="grid"><div class='card'><strong>FAWB</strong><p>FAWB AD OPR HR AS PUBLISHED.<br/>FAWB TWY LIGHTING SERVICEABLE.</p></div><div class='card'><strong>FAMB</strong><p>FAMB AD OPS DAYLIGHT HOURS ONLY.<br/>FAMB RWY 11/29 EDGE MARKINGS REFRESHED.</p></div><div class='card'><strong>FAWR</strong><p>FAWR AD PPR REQUIRED.<br/>FAWR RWY 05/23 SERVICEABLE, DAY OPS ONLY.</p></div></div>
    </section>

    <section class="section">
      <h3>Upper winds & temperatures</h3>
      <table class="table">
        <tr><th>Level (ft)</th><th>Wind</th><th>Temp</th><th>Headwind (kt)</th>
          <th>Ground speed (kt)</th></tr>
        
      </table>
      <p>Freezing level estimate: 18000 ft</p>
    </section>

    <section class="section">
      <h3>SIGMET / AIRMET</h3>
      <div class="grid"><div class='card'><p>SIGMET 1 ZFWG JOHANNESBURG FIR MOD TURB FL080-FL180 MOV NE</p></div><div class='card'><p>SIGMET 2 ZFWG JOHANNESBURG FIR ISOL TS FL100-FL200 MOV NE</p></div><div class='card'><p>AIRMET 1 ZFWG JOHANNESBURG FIR ICE MOD FL090-FL150</p></div></div>
      <p>Time to SIGMET expiry: --h</p>
    </section>

    <section class="section">
      <h3>SIGWX charts</h3>
      <div class="grid">
        <div class="card"><img src="../assets/low_sigwx.svg"
          alt="Low-level SIGWX sample" /></div>
        <div class="card"><img src="../assets/high_sigwx.svg"
          alt="High-level SIGWX sample" /></div>
      </div>
      <p class="note">For training reference only.</p>
    </section>
    
  </main>
  <footer>
    <p>Training/augmentation only. Verify with SAWS/ATC/AIP/NOTAM office and POH/AFM.</p>
    <p>Computed values are approximations.</p>
  </footer>
  <script src="../assets/app.js"></script>
</body>
</html>
